{
  "type": "Feature",
  "properties": {
    "code": "RACINE",
    "label": "Racine",
    "cityCode": "casablanca",
    "provenance": "NAFURA_CURATED",
    "version": "MA-CASA-2026-01"
  },
  "geometry": {
    "type": "Polygon",
    "coordinates": [
      [
        [
          -7.652,
          33.582
        ],
        [
          -7.635,
          33.582
        ],
        [
          -7.635,
          33.5965
        ],
        [
          -7.652,
          33.5965
        ],
        [
          -7.652,
          33.582
        ]
      ]
    ]
  }
}
